[{"OBJECT_NAME":"FOSSASAT-2E20 (TAT-O)","OBJECT_ID":"2025-009DN","EPOCH":"2026-03-09T17:00:18.734688","MEAN_MOTION":15.2699108,"ECCENTRICITY":0.00021892,"INCLINATION":97.3231,"RA_OF_ASC_NODE":146.2859,"ARG_OF_PERICENTER":347.5575,"MEAN_ANOMALY":12.561,"EPHEMERIS_TYPE":0,"CLASSIFICATION_TYPE":"U","NORAD_CAT_ID":63003,"ELEMENT_SET_NO":999,"REV_AT_EPOCH":12131,"BSTAR":0.00061862572,"MEAN_MOTION_DOT":0.00016337,"MEAN_MOTION_DDOT":0},{"OBJECT_NAME":"STARLINK-36410","OBJECT_ID":"2026-003D","EPOCH":"2026-03-09T10:56:13.321536","MEAN_MOTION":15.27594916,"ECCENTRICITY":9.594e-5,"INCLINATION":42.9974,"RA_OF_ASC_NODE":228.7734,"ARG_OF_PERICENTER":278.7996,"MEAN_ANOMALY":81.2747,"EPHEMERIS_TYPE":0,"CLASSIFICATION_TYPE":"U","NORAD_CAT_ID":67337,"ELEMENT_SET_NO":999,"REV_AT_EPOCH":878,"BSTAR":0.0013428845,"MEAN_MOTION_DOT":0.00036893,"MEAN_MOTION_DDOT":0}]
